{"type": "FeatureCollection", "features": [ {"type": "Feature", "properties": {"norad_id": 66523, "name": "STARLINK-35969", "group": "last-30-days", "lat": -17.49597799769539, "lon": 68.78544332291655, "alt_km": 377.4178805822321, "timestamp": "2025-12-06T20:37:54.813131+00:00", "meta": {"OBJECT_NAME": "STARLINK-35969", "OBJECT_ID": "2025-265H", "EPOCH": "2025-12-06T14:00:01.999872", "MEAN_MOTION": 15.65134659, "ECCENTRICITY": 0.00011491, "INCLINATION": 43.0002, "RA_OF_ASC_NODE": 90.208, "ARG_OF_PERICENTER": 277.8779, "MEAN_ANOMALY": 297.9019, "EPHEMERIS_TYPE": 0, "CLASSIFICATION_TYPE": "U", "NORAD_CAT_ID": 66523, "ELEMENT_SET_NO": 999, "REV_AT_EPOCH": 400, "BSTAR": -0.022230031, "MEAN_MOTION_DOT": -0.01987566, "MEAN_MOTION_DDOT": 0}, "tle": {"line1": "1 66523U 25265H   25340.58335648 -.01987566  00000+0 -22230-1 0  9991", "line2": "2 66523  43.0002  90.2080 0001149 277.8779 297.9019 15.65134659  4000"}}, "geometry": {"type": "Point", "coordinates": [68.78544332291655, -17.49597799769539]}}, {"type": "Feature", "properties": {"norad_id": 66524, "name": "STARLINK-35687", "group": "last-30-days", "lat": -16.260858628647476, "lon": 70.31103186404931, "alt_km": 377.2823127852762, "timestamp": "2025-12-06T20:37:54.813144+00:00", "meta": {"OBJECT_NAME": "STARLINK-35687", "OBJECT_ID": "2025-265J", "EPOCH": "2025-12-06T14:00:01.999872", "MEAN_MOTION": 15.65133671, "ECCENTRICITY": 0.00012266, "INCLINATION": 43.0001, "RA_OF_ASC_NODE": 90.2026, "ARG_OF_PERICENTER": 278.7747, "MEAN_ANOMALY": 298.9219, "EPHEMERIS_TYPE": 0, "CLASSIFICATION_TYPE": "U", "NORAD_CAT_ID": 66524, "ELEMENT_SET_NO": 999, "REV_AT_EPOCH": 400, "BSTAR": -0.022209019, "MEAN_MOTION_DOT": -0.01985902, "MEAN_MOTION_DDOT": 0}, "tle": {"line1": "1 66524U 25265J   25340.58335648 -.01985902  00000+0 -22209-1 0  9990", "line2": "2 66524  43.0001  90.2026 0001226 278.7747 298.9219 15.65133671  4007"}}, "geometry": {"type": "Point", "coordinates": [70.31103186404931, -16.260858628647476]}}, {"type": "Feature", "properties": {"norad_id": 66525, "name": "STARLINK-35975", "group": "last-30-days", "lat": -15.014714879525751, "lon": 71.81850895232886, "alt_km": 377.20628900007796, "timestamp": "2025-12-06T20:37:54.813154+00:00", "meta": {"OBJECT_NAME": "STARLINK-35975", "OBJECT_ID": "2025-265K", "EPOCH": "2025-12-06T14:00:01.999872", "MEAN_MOTION": 15.65135624, "ECCENTRICITY": 0.00012028, "INCLINATION": 43, "RA_OF_ASC_NODE": 90.1981, "ARG_OF_PERICENTER": 278.0388, "MEAN_ANOMALY": 301.5739, "EPHEMERIS_TYPE": 0, "CLASSIFICATION_TYPE": "U", "NORAD_CAT_ID": 66525, "ELEMENT_SET_NO": 999, "REV_AT_EPOCH": 400, "BSTAR": -0.022237469, "MEAN_MOTION_DOT": -0.01988258, "MEAN_MOTION_DDOT": 0}, "tle": {"line1": "1 66525U 25265K   25340.58335648 -.01988258  00000+0 -22237-1 0  9999", "line2": "2 66525  43.0000  90.1981 0001202 278.0388 301.5739 15.65135624  4002"}}, "geometry": {"type": "Point", "coordinates": [71.81850895232886, -15.014714879525751]}}, {"type": "Feature", "properties": {"norad_id": 66526, "name": "STARLINK-35932", "group": "last-30-days", "lat": -13.75940651966912, "lon": 73.30758954341836, "alt_km": 377.09730102356116, "timestamp": "2025-12-06T20:37:54.813165+00:00", "meta": {"OBJECT_NAME": "STARLINK-35932", "OBJECT_ID": "2025-265L", "EPOCH": "2025-12-06T14:00:01.999872", "MEAN_MOTION": 15.6513654, "ECCENTRICITY": 0.00011715, "INCLINATION": 43.0003, "RA_OF_ASC_NODE": 90.1934, "ARG_OF_PERICENTER": 279.319, "MEAN_ANOMALY": 302.2098, "EPHEMERIS_TYPE": 0, "CLASSIFICATION_TYPE": "U", "NORAD_CAT_ID": 66526, "ELEMENT_SET_NO": 999, "REV_AT_EPOCH": 389, "BSTAR": -0.02224685, "MEAN_MOTION_DOT": -0.01989036, "MEAN_MOTION_DDOT": 0}, "tle": {"line1": "1 66526U 25265L   25340.58335648 -.01989036  00000+0 -22247-1 0  9996", "line2": "2 66526  43.0003  90.1934 0001171 279.3190 302.2098 15.65136540  3894"}}, "geometry": {"type": "Point", "coordinates": [73.30758954341836, -13.75940651966912]}}, {"type": "Feature", "properties": {"norad_id": 66527, "name": "STARLINK-35935", "group": "last-30-days", "lat": -12.494702695082463, "lon": 74.78131659819455, "alt_km": 376.9542003682709, "timestamp": "2025-12-06T20:37:54.813175+00:00", "meta": {"OBJECT_NAME": "STARLINK-35935", "OBJECT_ID": "2025-265M", "EPOCH": "2025-12-06T14:00:01.999872", "MEAN_MOTION": 15.6513462, "ECCENTRICITY": 0.00011995, "INCLINATION": 43.0004, "RA_OF_ASC_NODE": 90.1889, "ARG_OF_PERICENTER": 281.3713, "MEAN_ANOMALY": 302.0756, "EPHEMERIS_TYPE": 0, "CLASSIFICATION_TYPE": "U", "NORAD_CAT_ID": 66527, "ELEMENT_SET_NO": 999, "REV_AT_EPOCH": 400, "BSTAR": -0.022226024, "MEAN_MOTION_DOT": -0.01987285, "MEAN_MOTION_DDOT": 0}, "tle": {"line1": "1 66527U 25265M   25340.58335648 -.01987285  00000+0 -22226-1 0  9998", "line2": "2 66527  43.0004  90.1889 0001199 281.3713 302.0756 15.65134620  4009"}}, "geometry": {"type": "Point", "coordinates": [74.78131659819455, -12.494702695082463]}}, {"type": "Feature", "properties": {"norad_id": 66528, "name": "STARLINK-35928", "group": "last-30-days", "lat": -11.22148727272809, "lon": 76.24065354512709, "alt_km": 376.8717169812471, "timestamp": "2025-12-06T20:37:54.813188+00:00", "meta": {"OBJECT_NAME": "STARLINK-35928", "OBJECT_ID": "2025-265N", "EPOCH": "2025-12-06T14:00:01.999872", "MEAN_MOTION": 15.65137464, "ECCENTRICITY": 0.00012051, "INCLINATION": 43.0004, "RA_OF_ASC_NODE": 90.1839, "ARG_OF_PERICENTER": 279.3662, "MEAN_ANOMALY": 305.9957, "EPHEMERIS_TYPE": 0, "CLASSIFICATION_TYPE": "U", "NORAD_CAT_ID": 66528, "ELEMENT_SET_NO": 999, "REV_AT_EPOCH": 400, "BSTAR": -0.022254174, "MEAN_MOTION_DOT": -0.01989702, "MEAN_MOTION_DDOT": 0}, "tle": {"line1": "1 66528U 25265N   25340.58335648 -.01989702  00000+0 -22254-1 0  9996", "line2": "2 66528  43.0004  90.1839 0001205 279.3662 305.9957 15.65137464  4007"}}, "geometry": {"type": "Point", "coordinates": [76.24065354512709, -11.22148727272809]}}, {"type": "Feature", "properties": {"norad_id": 66529, "name": "STARLINK-35933", "group": "last-30-days", "lat": -9.941099217276408, "lon": 77.6871714687542, "alt_km": 376.79646695888187, "timestamp": "2025-12-06T20:37:54.813198+00:00", "meta": {"OBJECT_NAME": "STARLINK-35933", "OBJECT_ID": "2025-265P", "EPOCH": "2025-12-06T14:00:01.999872", "MEAN_MOTION": 15.65134186, "ECCENTRICITY": 0.0001191, "INCLINATION": 43.0003, "RA_OF_ASC_NODE": 90.1789, "ARG_OF_PERICENTER": 277.5272, "MEAN_ANOMALY": 309.754, "EPHEMERIS_TYPE": 0, "CLASSIFICATION_TYPE": "U", "NORAD_CAT_ID": 66529, "ELEMENT_SET_NO": 999, "REV_AT_EPOCH": 400, "BSTAR": -0.022208573, "MEAN_MOTION_DOT": -0.01985877, "MEAN_MOTION_DDOT": 0}, "tle": {"line1": "1 66529U 25265P   25340.58335648 -.01985877  00000+0 -22209-1 0  9996", "line2": "2 66529  43.0003  90.1789 0001191 277.5272 309.7540 15.65134186  4000"}}, "geometry": {"type": "Point", "coordinates": [77.6871714687542, -9.941099217276408]}}, {"type": "Feature", "properties": {"norad_id": 66530, "name": "STARLINK-35961", "group": "last-30-days", "lat": -8.654464794803463, "lon": 79.12288505018225, "alt_km": 376.6624419218733, "timestamp": "2025-12-06T20:37:54.813208+00:00", "meta": {"OBJECT_NAME": "STARLINK-35961", "OBJECT_ID": "2025-265Q", "EPOCH": "2025-12-06T14:00:01.999872", "MEAN_MOTION": 15.65137115, "ECCENTRICITY": 0.00011703, "INCLINATION": 43.0002, "RA_OF_ASC_NODE": 90.1744, "ARG_OF_PERICENTER": 279.0171, "MEAN_ANOMALY": 310.1807, "EPHEMERIS_TYPE": 0, "CLASSIFICATION_TYPE": "U", "NORAD_CAT_ID": 66530, "ELEMENT_SET_NO": 999, "REV_AT_EPOCH": 400, "BSTAR": -0.022269401, "MEAN_MOTION_DOT": -0.01990847, "MEAN_MOTION_DDOT": 0}, "tle": {"line1": "1 66530U 25265Q   25340.58335648 -.01990847  00000+0 -22269-1 0  9997", "line2": "2 66530  43.0002  90.1744 0001170 279.0171 310.1807 15.65137115  4001"}}, "geometry": {"type": "Point", "coordinates": [79.12288505018225, -8.654464794803463]}}, {"type": "Feature", "properties": {"norad_id": 66531, "name": "STARLINK-35960", "group": "last-30-days", "lat": -7.361832930142398, "lon": 80.54918424450153, "alt_km": 376.61004135101757, "timestamp": "2025-12-06T20:37:54.813221+00:00", "meta": {"OBJECT_NAME": "STARLINK-35960", "OBJECT_ID": "2025-265R", "EPOCH": "2025-12-06T14:00:01.999872", "MEAN_MOTION": 15.65138185, "ECCENTRICITY": 0.00011919, "INCLINATION": 43.0004, "RA_OF_ASC_NODE": 90.1695, "ARG_OF_PERICENTER": 274.6575, "MEAN_ANOMALY": 316.4573, "EPHEMERIS_TYPE": 0, "CLASSIFICATION_TYPE": "U", "NORAD_CAT_ID": 66531, "ELEMENT_SET_NO": 999, "REV_AT_EPOCH": 400, "BSTAR": -0.022282938, "MEAN_MOTION_DOT": -0.01992002, "MEAN_MOTION_DDOT": 0}, "tle": {"line1": "1 66531U 25265R   25340.58335648 -.01992002  00000+0 -22283-1 0  9999", "line2": "2 66531  43.0004  90.1695 0001191 274.6575 316.4573 15.65138185  4008"}}, "geometry": {"type": "Point", "coordinates": [80.54918424450153, -7.361832930142398]}}, {"type": "Feature", "properties": {"norad_id": 66532, "name": "STARLINK-35914", "group": "last-30-days", "lat": -6.065738739486951, "lon": 81.96591000329946, "alt_km": 376.4222232974307, "timestamp": "2025-12-06T20:37:54.813233+00:00", "meta": {"OBJECT_NAME": "STARLINK-35914", "OBJECT_ID": "2025-265S", "EPOCH": "2025-12-06T14:00:01.999872", "MEAN_MOTION": 15.65133196, "ECCENTRICITY": 0.00012549, "INCLINATION": 43.0003, "RA_OF_ASC_NODE": 90.1646, "ARG_OF_PERICENTER": 277.9145, "MEAN_ANOMALY": 315.1196, "EPHEMERIS_TYPE": 0, "CLASSIFICATION_TYPE": "U", "NORAD_CAT_ID": 66532, "ELEMENT_SET_NO": 999, "REV_AT_EPOCH": 400, "BSTAR": -0.022213505, "MEAN_MOTION_DOT": -0.01986242, "MEAN_MOTION_DDOT": 0}, "tle": {"line1": "1 66532U 25265S   25340.58335648 -.01986242  00000+0 -22214-1 0  9993", "line2": "2 66532  43.0003  90.1646 0001254 277.9145 315.1196 15.65133196  4007"}}, "geometry": {"type": "Point", "coordinates": [81.96591000329946, -6.065738739486951]}}]}